SL-3 R/B                
1 13403U 82079B   26001.18487457  .00009026  00000+0  36957-3 0  9999
2 13403  81.1476 272.7373 0026456  36.5895 323.7138 15.23852256367417
SL-14 R/B               
1 13553U 82092B   26001.01720409  .00000841  00000+0  91857-4 0  9996
2 13553  82.5670 204.6825 0020744 161.7857 357.9779 14.86577167318872
SL-3 R/B                
1 13819U 83010B   25365.69920339  .00020895  00000+0  45446-3 0  9995
2 13819  81.1052  85.4676 0016307 283.2564  76.6860 15.44041406347448
SL-3 R/B                
1 14208U 83075B   26001.13150991  .00016301  00000+0  45390-3 0  9990
2 14208  97.6103   3.2722 0024439 109.5179 250.8707 15.36585620319770
COSMOS 1536             
1 14699U 84013A   25365.93024365  .00011038  00000+0  46956-3 0  9993
2 14699  82.5444 175.1291 0014966 156.8289 203.3625 15.22784637262308
SL-14 R/B               
1 14820U 84027B   25365.88260198  .00000880  00000+0  97975-4 0  9995
2 14820  82.5428 308.6049 0017490 193.2352 166.8408 14.85898334237561
SL-8 R/B                
1 15483U 85006B   26001.16485751  .00000520  00000+0  18120-3 0  9997
2 15483  74.0458  25.3942 0019493 313.9318 107.4686 14.37735423144325
SL-12 R/B(2)            
1 15772U 85042D   26001.10165399  .00000178  00000+0  10165-3 0  9995
2 15772  71.1066 230.5172 0037065 233.0231 240.6901 14.21958104104787
SL-14 R/B               
1 15945U 85069B   25365.68606421  .00000931  00000+0  10254-3 0  9993
2 15945  82.5272  88.8920 0020099  60.1802 300.1409 14.86349253162735
SL-16 R/B               
1 16182U 85097B   26001.20694395  .00000035  00000+0  41447-4 0  9995
2 16182  71.0030 282.6202 0007841 341.7410 124.1105 14.16586725 77679
SL-14 R/B               
1 16496U 86006B   25365.88216413  .00001048  00000+0  10868-3 0  9998
2 16496  82.5278 323.5396 0077768 136.5870 224.1508 14.86699434139139
COSMOS 1743             
1 16719U 86034A   25365.85933799  .00041555  00000+0  65401-3 0  9997
2 16719  82.5349 144.7159 0005037 176.8546 183.2740 15.53397849169702
