CCSDS_OMM_VERS = 2.0
CREATION_DATE  = 
ORIGINATOR     = 

OBJECT_NAME    = SL-3 R/B
OBJECT_ID      = 1982-079B
CENTER_NAME    = EARTH
REF_FRAME      = TEME
TIME_SYSTEM    = UTC
MEAN_ELEMENT_THEORY = SGP/SGP4

EPOCH          = 2026-01-01T04:26:13.162848
MEAN_MOTION    = 15.23852256
ECCENTRICITY   = .0026456
INCLINATION    = 81.1476
RA_OF_ASC_NODE = 272.7373
ARG_OF_PERICENTER = 36.5895
MEAN_ANOMALY   = 323.7138

EPHEMERIS_TYPE = 0
CLASSIFICATION_TYPE = U
NORAD_CAT_ID   = 13403
ELEMENT_SET_NO = 999
REV_AT_EPOCH   = 36741
BSTAR          = .36957E-3
MEAN_MOTION_DOT = .9026E-4
MEAN_MOTION_DDOT = 0

CCSDS_OMM_VERS = 2.0
CREATION_DATE  = 
ORIGINATOR     = 

OBJECT_NAME    = SL-14 R/B
OBJECT_ID      = 1982-092B
CENTER_NAME    = EARTH
REF_FRAME      = TEME
TIME_SYSTEM    = UTC
MEAN_ELEMENT_THEORY = SGP/SGP4

EPOCH          = 2026-01-01T00:24:46.433376
MEAN_MOTION    = 14.86577167
ECCENTRICITY   = .0020744
INCLINATION    = 82.5670
RA_OF_ASC_NODE = 204.6825
ARG_OF_PERICENTER = 161.7857
MEAN_ANOMALY   = 357.9779

EPHEMERIS_TYPE = 0
CLASSIFICATION_TYPE = U
NORAD_CAT_ID   = 13553
ELEMENT_SET_NO = 999
REV_AT_EPOCH   = 31887
BSTAR          = .91857E-4
MEAN_MOTION_DOT = .841E-5
MEAN_MOTION_DDOT = 0

CCSDS_OMM_VERS = 2.0
CREATION_DATE  = 
ORIGINATOR     = 

OBJECT_NAME    = SL-3 R/B
OBJECT_ID      = 1983-010B
CENTER_NAME    = EARTH
REF_FRAME      = TEME
TIME_SYSTEM    = UTC
MEAN_ELEMENT_THEORY = SGP/SGP4

EPOCH          = 2025-12-31T16:46:51.172896
MEAN_MOTION    = 15.44041406
ECCENTRICITY   = .00163074
INCLINATION    = 81.1052
RA_OF_ASC_NODE = 85.4676
ARG_OF_PERICENTER = 283.2564
MEAN_ANOMALY   = 76.6860

EPHEMERIS_TYPE = 0
CLASSIFICATION_TYPE = U
NORAD_CAT_ID   = 13819
ELEMENT_SET_NO = 999
REV_AT_EPOCH   = 34744
BSTAR          = .45445835E-3
MEAN_MOTION_DOT = .20895E-3
MEAN_MOTION_DDOT = 0

CCSDS_OMM_VERS = 2.0
CREATION_DATE  = 
ORIGINATOR     = 

OBJECT_NAME    = SL-3 R/B
OBJECT_ID      = 1983-075B
CENTER_NAME    = EARTH
REF_FRAME      = TEME
TIME_SYSTEM    = UTC
MEAN_ELEMENT_THEORY = SGP/SGP4

EPOCH          = 2026-01-01T03:09:22.456224
MEAN_MOTION    = 15.36585620
ECCENTRICITY   = .0024439
INCLINATION    = 97.6103
RA_OF_ASC_NODE = 3.2722
ARG_OF_PERICENTER = 109.5179
MEAN_ANOMALY   = 250.8707

EPHEMERIS_TYPE = 0
CLASSIFICATION_TYPE = U
NORAD_CAT_ID   = 14208
ELEMENT_SET_NO = 999
REV_AT_EPOCH   = 31977
BSTAR          = .4539E-3
MEAN_MOTION_DOT = .16301E-3
MEAN_MOTION_DDOT = 0

CCSDS_OMM_VERS = 2.0
CREATION_DATE  = 
ORIGINATOR     = 

OBJECT_NAME    = COSMOS 1536
OBJECT_ID      = 1984-013A
CENTER_NAME    = EARTH
REF_FRAME      = TEME
TIME_SYSTEM    = UTC
MEAN_ELEMENT_THEORY = SGP/SGP4

EPOCH          = 2025-12-31T22:19:33.051360
MEAN_MOTION    = 15.22784637
ECCENTRICITY   = .0014966
INCLINATION    = 82.5444
RA_OF_ASC_NODE = 175.1291
ARG_OF_PERICENTER = 156.8289
MEAN_ANOMALY   = 203.3625

EPHEMERIS_TYPE = 0
CLASSIFICATION_TYPE = U
NORAD_CAT_ID   = 14699
ELEMENT_SET_NO = 999
REV_AT_EPOCH   = 26230
BSTAR          = .46956E-3
MEAN_MOTION_DOT = .11038E-3
MEAN_MOTION_DDOT = 0

CCSDS_OMM_VERS = 2.0
CREATION_DATE  = 
ORIGINATOR     = 

OBJECT_NAME    = SL-14 R/B
OBJECT_ID      = 1984-027B
CENTER_NAME    = EARTH
REF_FRAME      = TEME
TIME_SYSTEM    = UTC
MEAN_ELEMENT_THEORY = SGP/SGP4

EPOCH          = 2025-12-31T21:10:56.811072
MEAN_MOTION    = 14.85898334
ECCENTRICITY   = .001749
INCLINATION    = 82.5428
RA_OF_ASC_NODE = 308.6049
ARG_OF_PERICENTER = 193.2352
MEAN_ANOMALY   = 166.8408

EPHEMERIS_TYPE = 0
CLASSIFICATION_TYPE = U
NORAD_CAT_ID   = 14820
ELEMENT_SET_NO = 999
REV_AT_EPOCH   = 23756
BSTAR          = .97975E-4
MEAN_MOTION_DOT = .88E-5
MEAN_MOTION_DDOT = 0

CCSDS_OMM_VERS = 2.0
CREATION_DATE  = 
ORIGINATOR     = 

OBJECT_NAME    = SL-8 R/B
OBJECT_ID      = 1985-006B
CENTER_NAME    = EARTH
REF_FRAME      = TEME
TIME_SYSTEM    = UTC
MEAN_ELEMENT_THEORY = SGP/SGP4

EPOCH          = 2026-01-01T03:57:23.688864
MEAN_MOTION    = 14.37735423
ECCENTRICITY   = .0019493
INCLINATION    = 74.0458
RA_OF_ASC_NODE = 25.3942
ARG_OF_PERICENTER = 313.9318
MEAN_ANOMALY   = 107.4686

EPHEMERIS_TYPE = 0
CLASSIFICATION_TYPE = U
NORAD_CAT_ID   = 15483
ELEMENT_SET_NO = 999
REV_AT_EPOCH   = 14432
BSTAR          = .1812E-3
MEAN_MOTION_DOT = .52E-5
MEAN_MOTION_DDOT = 0

CCSDS_OMM_VERS = 2.0
CREATION_DATE  = 
ORIGINATOR     = 

OBJECT_NAME    = SL-12 R/B(2)
OBJECT_ID      = 1985-042D
CENTER_NAME    = EARTH
REF_FRAME      = TEME
TIME_SYSTEM    = UTC
MEAN_ELEMENT_THEORY = SGP/SGP4

EPOCH          = 2026-01-01T02:26:22.904736
MEAN_MOTION    = 14.21958104
ECCENTRICITY   = .0037065
INCLINATION    = 71.1066
RA_OF_ASC_NODE = 230.5172
ARG_OF_PERICENTER = 233.0231
MEAN_ANOMALY   = 240.6901

EPHEMERIS_TYPE = 0
CLASSIFICATION_TYPE = U
NORAD_CAT_ID   = 15772
ELEMENT_SET_NO = 999
REV_AT_EPOCH   = 10478
BSTAR          = .10165E-3
MEAN_MOTION_DOT = .178E-5
MEAN_MOTION_DDOT = 0

CCSDS_OMM_VERS = 2.0
CREATION_DATE  = 
ORIGINATOR     = 

OBJECT_NAME    = SL-14 R/B
OBJECT_ID      = 1985-069B
CENTER_NAME    = EARTH
REF_FRAME      = TEME
TIME_SYSTEM    = UTC
MEAN_ELEMENT_THEORY = SGP/SGP4

EPOCH          = 2025-12-31T16:27:55.947744
MEAN_MOTION    = 14.86349253
ECCENTRICITY   = .00200996
INCLINATION    = 82.5272
RA_OF_ASC_NODE = 88.8920
ARG_OF_PERICENTER = 60.1802
MEAN_ANOMALY   = 300.1409

EPHEMERIS_TYPE = 0
CLASSIFICATION_TYPE = U
NORAD_CAT_ID   = 15945
ELEMENT_SET_NO = 999
REV_AT_EPOCH   = 16273
BSTAR          = .10253695E-3
MEAN_MOTION_DOT = .931E-5
MEAN_MOTION_DDOT = 0

CCSDS_OMM_VERS = 2.0
CREATION_DATE  = 
ORIGINATOR     = 

OBJECT_NAME    = SL-16 R/B
OBJECT_ID      = 1985-097B
CENTER_NAME    = EARTH
REF_FRAME      = TEME
TIME_SYSTEM    = UTC
MEAN_ELEMENT_THEORY = SGP/SGP4

EPOCH          = 2026-01-01T04:57:59.957280
MEAN_MOTION    = 14.16586725
ECCENTRICITY   = .0007841
INCLINATION    = 71.0030
RA_OF_ASC_NODE = 282.6202
ARG_OF_PERICENTER = 341.7410
MEAN_ANOMALY   = 124.1105

EPHEMERIS_TYPE = 0
CLASSIFICATION_TYPE = U
NORAD_CAT_ID   = 16182
ELEMENT_SET_NO = 999
REV_AT_EPOCH   = 7767
BSTAR          = .41447E-4
MEAN_MOTION_DOT = .35E-6
MEAN_MOTION_DDOT = 0

CCSDS_OMM_VERS = 2.0
CREATION_DATE  = 
ORIGINATOR     = 

OBJECT_NAME    = SL-14 R/B
OBJECT_ID      = 1986-006B
CENTER_NAME    = EARTH
REF_FRAME      = TEME
TIME_SYSTEM    = UTC
MEAN_ELEMENT_THEORY = SGP/SGP4

EPOCH          = 2025-12-31T21:10:18.980832
MEAN_MOTION    = 14.86699434
ECCENTRICITY   = .0077768
INCLINATION    = 82.5278
RA_OF_ASC_NODE = 323.5396
ARG_OF_PERICENTER = 136.5870
MEAN_ANOMALY   = 224.1508

EPHEMERIS_TYPE = 0
CLASSIFICATION_TYPE = U
NORAD_CAT_ID   = 16496
ELEMENT_SET_NO = 999
REV_AT_EPOCH   = 13913
BSTAR          = .10868E-3
MEAN_MOTION_DOT = .1048E-4
MEAN_MOTION_DDOT = 0

CCSDS_OMM_VERS = 2.0
CREATION_DATE  = 
ORIGINATOR     = 

OBJECT_NAME    = COSMOS 1743
OBJECT_ID      = 1986-034A
CENTER_NAME    = EARTH
REF_FRAME      = TEME
TIME_SYSTEM    = UTC
MEAN_ELEMENT_THEORY = SGP/SGP4

EPOCH          = 2025-12-31T20:37:26.802336
MEAN_MOTION    = 15.53397849
ECCENTRICITY   = .0005037
INCLINATION    = 82.5349
RA_OF_ASC_NODE = 144.7159
ARG_OF_PERICENTER = 176.8546
MEAN_ANOMALY   = 183.2740

EPHEMERIS_TYPE = 0
CLASSIFICATION_TYPE = U
NORAD_CAT_ID   = 16719
ELEMENT_SET_NO = 999
REV_AT_EPOCH   = 16970
BSTAR          = .65401E-3
MEAN_MOTION_DOT = .41555E-3
MEAN_MOTION_DDOT = 0

